[{"OBJECT_NAME":"STARLINK-1815","OBJECT_ID":"2020-073AV","EPOCH":"2026-03-10T00:00:02.999808","MEAN_MOTION":15.68490192,"ECCENTRICITY":0.00037944,"INCLINATION":53.0443,"RA_OF_ASC_NODE":200.7345,"ARG_OF_PERICENTER":346.009,"MEAN_ANOMALY":244.5885,"EPHEMERIS_TYPE":0,"CLASSIFICATION_TYPE":"U","NORAD_CAT_ID":46713,"ELEMENT_SET_NO":999,"REV_AT_EPOCH":553,"BSTAR":9.8093788e-5,"MEAN_MOTION_DOT":0.00010738,"MEAN_MOTION_DDOT":0},{"OBJECT_NAME":"STARLINK-11306 [DTC]","OBJECT_ID":"2024-175M","EPOCH":"2026-03-09T22:31:01.737120","MEAN_MOTION":15.6968798,"ECCENTRICITY":0.0001418,"INCLINATION":53.1594,"RA_OF_ASC_NODE":55.1748,"ARG_OF_PERICENTER":80.0828,"MEAN_ANOMALY":280.035,"EPHEMERIS_TYPE":0,"CLASSIFICATION_TYPE":"U","NORAD_CAT_ID":61254,"ELEMENT_SET_NO":999,"REV_AT_EPOCH":8460,"BSTAR":2.0140333e-5,"MEAN_MOTION_DOT":1.849e-5,"MEAN_MOTION_DDOT":0}]
